start=new Date('2021-11-07T00:00:00.000Z').valueOf();
sats=[{"CLASSIFICATION_TYPE":"U","ARG_OF_PERICENTER":"84.3480","TLE_LINE1":"1 44718U 19074F   21310.45138134 -.00000981  00000-0 -47008-4 0  9994","ECCENTRICITY":"0.00015330","APOAPSIS":"548.304","SITE":"AFETR","TIME_SYSTEM":"UTC","EPOCH":"2021-11-06T10:49:59.347776","MEAN_MOTION_DDOT":"0.0000000000000","OBJECT_ID":"2019-074F","MEAN_ANOMALY":"275.7683","PERIOD":"95.593","DECAY_DATE":null,"LAUNCH_DATE":"2019-11-11","REF_FRAME":"TEME","GP_ID":"189128572","NORAD_CAT_ID":"44718","RCS_SIZE":"LARGE","MEAN_MOTION":"15.06390581","OBJECT_TYPE":"PAYLOAD","INCLINATION":"53.0539","CENTER_NAME":"EARTH","TLE_LINE2":"2 44718  53.0539  98.5415 0001533  84.3480 275.7683 15.06390581109963","MEAN_MOTION_DOT":"-0.00000981","EPHEMERIS_TYPE":"0","RA_OF_ASC_NODE":"98.5415","PERIAPSIS":"546.181","MEAN_ELEMENT_THEORY":"SGP4","REV_AT_EPOCH":"10996","COUNTRY_CODE":"US","FILE":"3206165","OBJECT_NAME":"STARLINK-1012","SEMIMAJOR_AXIS":"6925.377","ELEMENT_SET_NO":"999","BSTAR":"-0.00004700800000"},{"BSTAR":"0.00001571300000","OBJECT_NAME":"STARLINK-1013","ELEMENT_SET_NO":"999","SEMIMAJOR_AXIS":"6925.370","REV_AT_EPOCH":"11110","COUNTRY_CODE":"US","FILE":"3206165","PERIAPSIS":"546.108","MEAN_ELEMENT_THEORY":"SGP4","RA_OF_ASC_NODE":"98.1992","EPHEMERIS_TYPE":"0","CENTER_NAME":"EARTH","MEAN_MOTION_DOT":"-0.00000048","TLE_LINE2":"2 44719  53.0555  98.1992 0001628  90.1706 269.9469 15.06392970111109","INCLINATION":"53.0555","OBJECT_TYPE":"PAYLOAD","MEAN_MOTION":"15.06392970","RCS_SIZE":"LARGE","NORAD_CAT_ID":"44719","GP_ID":"189128824","MEAN_ANOMALY":"269.9469","LAUNCH_DATE":"2019-11-11","DECAY_DATE":null,"PERIOD":"95.593","REF_FRAME":"TEME","OBJECT_ID":"2019-074G","MEAN_MOTION_DDOT":"0.0000000000000","TIME_SYSTEM":"UTC","EPOCH":"2021-11-06T12:36:09.225792","SITE":"AFETR","APOAPSIS":"548.363","TLE_LINE1":"1 44719U 19074G   21310.52510678 -.00000048  00000-0  15713-4 0  9991","ECCENTRICITY":"0.00016280","ARG_OF_PERICENTER":"90.1706","CLASSIFICATION_TYPE":"U"},{"SEMIMAJOR_AXIS":"6925.323","ELEMENT_SET_NO":"999","OBJECT_NAME":"STARLINK-1014","BSTAR":"0.00018761000000","TLE_LINE2":"2 44720  53.0528  98.7254 0001873  89.2297 270.8906 15.06408457109960","MEAN_MOTION_DOT":"0.00002515","CENTER_NAME":"EARTH","EPHEMERIS_TYPE":"0","RA_OF_ASC_NODE":"98.7254","MEAN_ELEMENT_THEORY":"SGP4","PERIAPSIS":"545.891","FILE":"3206165","COUNTRY_CODE":"US","REV_AT_EPOCH":"10996","MEAN_MOTION":"15.06408457","OBJECT_TYPE":"PAYLOAD","INCLINATION":"53.0528","GP_ID":"189129574","NORAD_CAT_ID":"44720","RCS_SIZE":"LARGE","DECAY_DATE":null,"PERIOD":"95.592","LAUNCH_DATE":"2019-11-11","REF_FRAME":"TEME","MEAN_ANOMALY":"270.8906","MEAN_MOTION_DDOT":"0.0000000000000","OBJECT_ID":"2019-074H","ECCENTRICITY":"0.00018730","TLE_LINE1":"1 44720U 19074H   21310.41083078  .00002515  00000-0  18761-3 0  9995","APOAPSIS":"548.485","SITE":"AFETR","TIME_SYSTEM":"UTC","EPOCH":"2021-11-06T09:51:35.779392","CLASSIFICATION_TYPE":"U","ARG_OF_PERICENTER":"89.2297"},{"ARG_OF_PERICENTER":"81.6656","CLASSIFICATION_TYPE":"U","EPOCH":"2021-11-06T19:08:54.568320","TIME_SYSTEM":"UTC","SITE":"AFETR","APOAPSIS":"548.364","ECCENTRICITY":"0.00016420","TLE_LINE1":"1 44721U 19074J   21310.79785380 -.00001119  00000-0 -56243-4 0  9991","OBJECT_ID":"2019-074J","MEAN_MOTION_DDOT":"0.0000000000000","LAUNCH_DATE":"2019-11-11","DECAY_DATE":null,"PERIOD":"95.592","REF_FRAME":"TEME","MEAN_ANOMALY":"278.4519","RCS_SIZE":"LARGE","NORAD_CAT_ID":"44721","GP_ID":"189101569","INCLINATION":"53.0530","OBJECT_TYPE":"PAYLOAD","MEAN_MOTION":"15.06395535","FILE":"3205814","REV_AT_EPOCH":"11018","COUNTRY_CODE":"US","MEAN_ELEMENT_THEORY":"SGP4","PERIAPSIS":"546.090","RA_OF_ASC_NODE":"96.9750","EPHEMERIS_TYPE":"0","TLE_LINE2":"2 44721  53.0530  96.9750 0001642  81.6656 278.4519 15.06395535110186","MEAN_MOTION_DOT":"-0.00001119","CENTER_NAME":"EARTH","BSTAR":"-0.00005624300000","ELEMENT_SET_NO":"999","SEMIMAJOR_AXIS":"6925.362","OBJECT_NAME":"STARLINK-1015"},{"INCLINATION":"53.0540","OBJECT_TYPE":"PAYLOAD","MEAN_MOTION":"15.06383940","RCS_SIZE":"LARGE","NORAD_CAT_ID":"44722","GP_ID":"189102073","BSTAR":"-0.00022470000000","OBJECT_NAME":"STARLINK-1016","ELEMENT_SET_NO":"999","SEMIMAJOR_AXIS":"6925.398","REV_AT_EPOCH":"11019","COUNTRY_CODE":"US","FILE":"3205814","PERIAPSIS":"546.212","MEAN_ELEMENT_THEORY":"SGP4","RA_OF_ASC_NODE":"96.9664","EPHEMERIS_TYPE":"0","CENTER_NAME":"EARTH","TLE_LINE2":"2 44722  53.0540  96.9664 0001517  87.7317 272.3845 15.06383940110197","MEAN_MOTION_DOT":"-0.00003625","TIME_SYSTEM":"UTC","EPOCH":"2021-11-06T19:14:13.807680","SITE":"AFETR","APOAPSIS":"548.313","TLE_LINE1":"1 44722U 19074K   21310.80154870 -.00003625  00000-0 -22470-3 0  9996","ECCENTRICITY":"0.00015170","ARG_OF_PERICENTER":"87.7317","CLASSIFICATION_TYPE":"U","MEAN_ANOMALY":"272.3845","DECAY_DATE":null,"PERIOD":"95.593","LAUNCH_DATE":"2019-11-11","REF_FRAME":"TEME","OBJECT_ID":"2019-074K","MEAN_MOTION_DDOT":"0.0000000000000"},{"MEAN_MOTION_DDOT":"0.0000000000000","OBJECT_ID":"2019-074L","REF_FRAME":"TEME","DECAY_DATE":null,"LAUNCH_DATE":"2019-11-11","PERIOD":"95.593","MEAN_ANOMALY":"265.1491","ARG_OF_PERICENTER":"94.9677","CLASSIFICATION_TYPE":"U","APOAPSIS":"548.326","ECCENTRICITY":"0.00015720","TLE_LINE1":"1 44723U 19074L   21310.41820851  .00000787  00000-0  71743-4 0  9995","TIME_SYSTEM":"UTC","EPOCH":"2021-11-06T10:02:13.215264","SITE":"AFETR","RA_OF_ASC_NODE":"98.6914","EPHEMERIS_TYPE":"0","MEAN_MOTION_DOT":"0.00000787","TLE_LINE2":"2 44723  53.0547  98.6914 0001572  94.9677 265.1491 15.06392326109960","CENTER_NAME":"EARTH","FILE":"3206165","COUNTRY_CODE":"US","REV_AT_EPOCH":"10996","MEAN_ELEMENT_THEORY":"SGP4","PERIAPSIS":"546.148","SEMIMAJOR_AXIS":"6925.372","ELEMENT_SET_NO":"999","OBJECT_NAME":"STARLINK-1017","BSTAR":"0.00007174300000","RCS_SIZE":"LARGE","NORAD_CAT_ID":"44723","GP_ID":"189129324","MEAN_MOTION":"15.06392326","INCLINATION":"53.0547","OBJECT_TYPE":"PAYLOAD"},{"CLASSIFICATION_TYPE":"U","ARG_OF_PERICENTER":"89.0017","APOAPSIS":"548.293","ECCENTRICITY":"0.00015010","TLE_LINE1":"1 44724U 19074M   21310.77942908 -.00003396  00000-0 -20924-3 0  9998","TIME_SYSTEM":"UTC","EPOCH":"2021-11-06T18:42:22.672512","SITE":"AFETR","MEAN_MOTION_DDOT":"0.0000000000000","OBJECT_ID":"2019-074M","PERIOD":"95.593","DECAY_DATE":null,"LAUNCH_DATE":"2019-11-11","REF_FRAME":"TEME","MEAN_ANOMALY":"271.1144","RCS_SIZE":"LARGE","NORAD_CAT_ID":"44724","GP_ID":"189101582","MEAN_MOTION":"15.06386928","INCLINATION":"53.0540","OBJECT_TYPE":"PAYLOAD","EPHEMERIS_TYPE":"0","RA_OF_ASC_NODE":"97.0696","MEAN_MOTION_DOT":"-0.00003396","TLE_LINE2":"2 44724  53.0540  97.0696 0001501  89.0017 271.1144 15.06386928110188","CENTER_NAME":"EARTH","FILE":"3205815","REV_AT_EPOCH":"11018","COUNTRY_CODE":"US","MEAN_ELEMENT_THEORY":"SGP4","PERIAPSIS":"546.214","SEMIMAJOR_AXIS":"6925.389","ELEMENT_SET_NO":"999","OBJECT_NAME":"STARLINK-1019","BSTAR":"-0.00020924000000"},{"CLASSIFICATION_TYPE":"U","ARG_OF_PERICENTER":"91.0387","SITE":"AFETR","TIME_SYSTEM":"UTC","EPOCH":"2021-11-06T17:14:47.846112","TLE_LINE1":"1 44725U 19074N   21310.71860933 -.00001884  00000-0 -10762-3 0  9999","ECCENTRICITY":"0.00015590","APOAPSIS":"548.322","OBJECT_ID":"2019-074N","MEAN_MOTION_DDOT":"0.0000000000000","MEAN_ANOMALY":"269.0781","LAUNCH_DATE":"2019-11-11","DECAY_DATE":null,"PERIOD":"95.593","REF_FRAME":"TEME","GP_ID":"189101578","NORAD_CAT_ID":"44725","RCS_SIZE":"LARGE","OBJECT_TYPE":"PAYLOAD","INCLINATION":"53.0528","MEAN_MOTION":"15.06390629","PERIAPSIS":"546.163","MEAN_ELEMENT_THEORY":"SGP4","REV_AT_EPOCH":"10989","COUNTRY_CODE":"US","FILE":"3205815","CENTER_NAME":"EARTH","TLE_LINE2":"2 44725  53.0528 117.3363 0001559  91.0387 269.0781 15.06390629109890","MEAN_MOTION_DOT":"-0.00001884","RA_OF_ASC_NODE":"117.3363","EPHEMERIS_TYPE":"0","BSTAR":"-0.00010762000000","OBJECT_NAME":"STARLINK-1020","ELEMENT_SET_NO":"999","SEMIMAJOR_AXIS":"6925.377"},{"SEMIMAJOR_AXIS":"6925.351","ELEMENT_SET_NO":"999","OBJECT_NAME":"STARLINK-1021","BSTAR":"0.00002983100000","RA_OF_ASC_NODE":"97.0942","EPHEMERIS_TYPE":"0","MEAN_MOTION_DOT":"0.00000163","TLE_LINE2":"2 44726  53.0549  97.0942 0001425  94.3480 265.7672 15.06399085110184","CENTER_NAME":"EARTH","FILE":"3205817","REV_AT_EPOCH":"11018","COUNTRY_CODE":"US","MEAN_ELEMENT_THEORY":"SGP4","PERIAPSIS":"546.229","MEAN_MOTION":"15.06399085","INCLINATION":"53.0549","OBJECT_TYPE":"PAYLOAD","NORAD_CAT_ID":"44726","RCS_SIZE":"LARGE","GP_ID":"189102111","DECAY_DATE":null,"REF_FRAME":"TEME","LAUNCH_DATE":"2019-11-11","PERIOD":"95.592","MEAN_ANOMALY":"265.7672","MEAN_MOTION_DDOT":"0.0000000000000","OBJECT_ID":"2019-074P","APOAPSIS":"548.203","ECCENTRICITY":"0.00014250","TLE_LINE1":"1 44726U 19074P   21310.77574357  .00000163  00000-0  29831-4 0  9993","EPOCH":"2021-11-06T18:37:04.244448","TIME_SYSTEM":"UTC","SITE":"AFETR","CLASSIFICATION_TYPE":"U","ARG_OF_PERICENTER":"94.3480"},{"OBJECT_ID":"2019-074Q","MEAN_MOTION_DDOT":"0.0000000000000","MEAN_ANOMALY":"280.4062","LAUNCH_DATE":"2019-11-11","DECAY_DATE":null,"PERIOD":"95.594","REF_FRAME":"TEME","CLASSIFICATION_TYPE":"U","ARG_OF_PERICENTER":"79.7129","SITE":"AFETR","EPOCH":"2021-11-06T19:30:09.766656","TIME_SYSTEM":"UTC","TLE_LINE1":"1 44727U 19074Q   21310.81261304 -.00003787  00000-0 -23563-3 0  9996","ECCENTRICITY":"0.00017950","APOAPSIS":"548.526","PERIAPSIS":"546.040","MEAN_ELEMENT_THEORY":"SGP4","COUNTRY_CODE":"US","REV_AT_EPOCH":"10964","FILE":"3205817","CENTER_NAME":"EARTH","MEAN_MOTION_DOT":"-0.00003787","TLE_LINE2":"2 44727  53.0626 136.8581 0001795  79.7129 280.4062 15.06377293109642","EPHEMERIS_TYPE":"0","RA_OF_ASC_NODE":"136.8581","BSTAR":"-0.00023563000000","OBJECT_NAME":"STARLINK-1022","ELEMENT_SET_NO":"999","SEMIMAJOR_AXIS":"6925.418","GP_ID":"189101624","NORAD_CAT_ID":"44727","RCS_SIZE":"LARGE","OBJECT_TYPE":"PAYLOAD","INCLINATION":"53.0626","MEAN_MOTION":"15.06377293"}];
